[
    {
        "Altitude(m)": 604983.0529398962,
        "Argument of Periapsis(deg)": 0.0,
        "Eccentricity": 0.0,
        "Inclination(deg)": 60.0,
        "Latitude(deg)": -0.09262345480263837,
        "Longitude(deg)": 15.083916549448974,
        "Mean Anomaly(deg)": -180.00000000000003,
        "RAAN(deg)": 295.00000000000006,
        "Satellite Name": "Test1 1309",
        "Satellite Number": 1309,
        "Semi-Major Axis(m)": 6980739.136638005,
        "Time(s)": 0
    },
    {
        "Altitude(m)": 605055.3322255842,
        "Argument of Periapsis(deg)": 0.00010418945913296404,
        "Eccentricity": 0.0,
        "Inclination(deg)": 60.0,
        "Latitude(deg)": -0.6330328941416606,
        "Longitude(deg)": 15.352042325875017,
        "Mean Anomaly(deg)": -179.37989385453818,
        "RAAN(deg)": 294.99957995086027,
        "Satellite Name": "Test1 1309",
        "Satellite Number": 1309,
        "Semi-Major Axis(m)": 6980739.136638005,
        "Time(s)": 10
    }
]